IRIDIUM 126             
1 42809U 17039G   25320.42443465  .00000396  00000+0  13431-3 0  9999
2 42809  86.3955  82.5862 0001955  89.3944 270.7476 14.34213870439450
IRIDIUM 124             
1 42810U 17039H   25320.62270626  .00000697  00000+0  20137-3 0  9995
2 42810  86.4523  19.2243 0001980  96.5599 263.5827 14.43269921444452
IRIDIUM 128             
1 42811U 17039J   25320.69423115  .00000593  00000+0  20451-3 0  9990
2 42811  86.3940 114.0076 0001800 102.5244 257.6153 14.34224261439525
IRIDIUM 121             
1 42812U 17039K   25320.37369242  .00000463  00000+0  15820-3 0  9996
2 42812  86.3965  82.6343 0002101  97.3056 262.8379 14.34216184439328
IRIDIUM 133             
1 42955U 17061A   25320.72595701  .00000478  00000+0  16361-3 0  9996
2 42955  86.3948 114.1068 0001910  91.1341 269.0073 14.34216606424321
IRIDIUM 100             
1 42956U 17061B   25320.44054026  .00000490  00000+0  16784-3 0  9999
2 42956  86.3948 114.1506 0001893  86.9301 273.2112 14.34216855424289
IRIDIUM 122             
1 42957U 17061C   25320.68789788  .00000581  00000+0  20040-3 0  9997
2 42957  86.3940 114.0460 0001939  89.5978 270.5440 14.34219651424326
IRIDIUM 129             
1 42958U 17061D   25320.71326757  .00000375  00000+0  12669-3 0  9994
2 42958  86.3943 114.1003 0002366  85.3467 274.7999 14.34220461424344
